ORBCOMM FM103           
1 40091U 14040F   25073.76052916  .00001723  00000+0  40876-3 0  9996
2 40091  47.0048 103.6772 0002457 235.0547 125.0108 14.57908189550323
ORBCOMM FM114           
1 41179U 15081A   25073.30556256  .00002346  00000+0  54265-3 0  9995
2 41179  47.0035  14.9301 0002775 282.6935  77.3640 14.57964169490627
ORBCOMM FM119           
1 41180U 15081B   25073.90559296  .00001619  00000+0  38642-3 0  9993
2 41180  47.0004 281.3772 0001170 322.4195  37.6609 14.57885601491961
ORBCOMM FM105           
1 41181U 15081C   25073.91986969  .00000778  00000+0  26529-3 0  9992
2 41181  47.0012 277.1309 0002099 257.8830 102.1815 14.45084648487116
ORBCOMM FM110           
1 41182U 15081D   25073.89808273  .00003039  00000+0  69202-3 0  9999
2 41182  47.0029  11.5011 0001728  50.5991 309.5047 14.57962160490581
ORBCOMM FM118           
1 41183U 15081E   25073.88267587  .00003039  00000+0  69306-3 0  9991
2 41183  47.0053  12.0239 0002174  47.6164 312.4905 14.57889238490683
ORBCOMM FM112           
1 41184U 15081F   25073.95043081  .00001889  00000+0  44445-3 0  9999
2 41184  46.9986 280.3282 0001135 287.4333  72.6428 14.57912169491915
ORBCOMM FM113           
1 41185U 15081G   25073.92738699  .00002264  00000+0  52545-3 0  9991
2 41185  46.9991 280.7493 0001071 302.4688  57.6094 14.57901454491894
